{
  "norad_id": 65624,
  "name": "STARLINK-35151",
  "history": [
    {
      "epoch": "2026-03-28T15:58:07.649184Z",
      "apogee_km": 476.2315011062037,
      "perigee_km": 474.16247957452015,
      "latitude_deg": -1.816870670715055e-05,
      "longitude_deg": 153.51946406646746,
      "height_km": 475.390862147684,
      "semi_major_axis_km": 6853.333990340361,
      "eccentricity": 0.00015095,
      "inclination_deg": 53.1574,
      "raan_deg": 219.1339,
      "arg_perigee_deg": 47.1036,
      "mean_anomaly_deg": 313.0091,
      "mean_motion_rev_day": 15.30206055
    },
    {
      "epoch": "2026-03-29T01:22:26.630688Z",
      "apogee_km": 475.93038976135813,
      "perigee_km": 474.4555531515007,
      "latitude_deg": -6.291816724401263e-05,
      "longitude_deg": 10.22698020129875,
      "height_km": 475.9887410459317,
      "semi_major_axis_km": 6853.329971456429,
      "eccentricity": 0.0001076,
      "inclination_deg": 53.1584,
      "raan_deg": 217.3068,
      "arg_perigee_deg": 82.016,
      "mean_anomaly_deg": 278.0962,
      "mean_motion_rev_day": 15.30207401
    }
  ]
}